[{"OBJECT_NAME":"STARLINK-32643","OBJECT_ID":"2024-231R","EPOCH":"2026-03-09T15:47:30.413760","MEAN_MOTION":15.30202978,"ECCENTRICITY":9.939e-5,"INCLINATION":53.1595,"RA_OF_ASC_NODE":206.9878,"ARG_OF_PERICENTER":59.5811,"MEAN_ANOMALY":300.5288,"EPHEMERIS_TYPE":0,"CLASSIFICATION_TYPE":"U","NORAD_CAT_ID":62233,"ELEMENT_SET_NO":999,"REV_AT_EPOCH":7193,"BSTAR":0.00091721789,"MEAN_MOTION_DOT":0.00026907,"MEAN_MOTION_DDOT":0},{"OBJECT_NAME":"CZ-4B DEB","OBJECT_ID":"2010-051E","EPOCH":"2026-03-08T22:01:50.125728","MEAN_MOTION":15.23766972,"ECCENTRICITY":0.00561086,"INCLINATION":97.769,"RA_OF_ASC_NODE":240.5013,"ARG_OF_PERICENTER":301.1291,"MEAN_ANOMALY":58.4449,"EPHEMERIS_TYPE":0,"CLASSIFICATION_TYPE":"U","NORAD_CAT_ID":38184,"ELEMENT_SET_NO":999,"REV_AT_EPOCH":82066,"BSTAR":0.0024566319,"MEAN_MOTION_DOT":0.00062123,"MEAN_MOTION_DDOT":0}]
